{
  "type": "FeatureCollection",
  "features": [
    {
      "type": "Feature",
      "properties": {
        "norad_id": 40938,
        "name": "BEIDOU-3S IGSO-2S (C56)",
        "group": "gnss",
        "lat": -49.51283520703605,
        "lon": 167.92708464442458,
        "alt_km": 35743.584124947934,
        "timestamp": "2025-12-09T23:33:24.095815+00:00",
        "meta_object_name": "BEIDOU-3S IGSO-2S (C56)",
        "meta_object_id": "2015-053A",
        "meta_epoch": "2025-12-07T17:59:38.817312",
        "meta_mean_motion": 1.00270783,
        "meta_eccentricity": 0.0060962,
        "meta_inclination": 49.5194,
        "meta_ra_of_asc_node": 261.0646,
        "meta_arg_of_pericenter": 188.6217,
        "meta_mean_anomaly": 353.0712,
        "meta_ephemeris_type": 0,
        "meta_classification_type": "U",
        "meta_norad_cat_id": 40938,
        "meta_element_set_no": 999,
        "meta_rev_at_epoch": 3743,
        "meta_bstar": 0,
        "meta_mean_motion_dot": -1.42e-06,
        "meta_mean_motion_ddot": 0,
        "tle_line1": "1 40938U 15053A   25341.74975483 -.00000142  00000+0  00000+0 0  9996",
        "tle_line2": "2 40938  49.5194 261.0646 0060962 188.6217 353.0712  1.00270783 37435"
      },
      "geometry": {
        "type": "Point",
        "coordinates": [
          167.92708464442458,
          -49.51283520703605
        ]
      }
    },
    {
      "type": "Feature",
      "properties": {
        "norad_id": 41019,
        "name": "GPS BIIF-11 (PRN 10)",
        "group": "gnss",
        "lat": 48.99981174924369,
        "lon": 169.3799615833457,
        "alt_km": 20294.410806127435,
        "timestamp": "2025-12-09T23:33:24.095830+00:00",
        "meta_object_name": "GPS BIIF-11 (PRN 10)",
        "meta_object_id": "2015-062A",
        "meta_epoch": "2025-12-09T07:40:39.423936",
        "meta_mean_motion": 2.00567031,
        "meta_eccentricity": 0.0110732,
        "meta_inclination": 56.8297,
        "meta_ra_of_asc_node": 38.1346,
        "meta_arg_of_pericenter": 229.8556,
        "meta_mean_anomaly": 129.2222,
        "meta_ephemeris_type": 0,
        "meta_classification_type": "U",
        "meta_norad_cat_id": 41019,
        "meta_element_set_no": 999,
        "meta_rev_at_epoch": 7402,
        "meta_bstar": 0,
        "meta_mean_motion_dot": -8.3e-07,
        "meta_mean_motion_ddot": 0,
        "tle_line1": "1 41019U 15062A   25343.31990074 -.00000083  00000+0  00000+0 0  9999",
        "tle_line2": "2 41019  56.8297  38.1346 0110732 229.8556 129.2222  2.00567031 74027"
      },
      "geometry": {
        "type": "Point",
        "coordinates": [
          169.3799615833457,
          48.99981174924369
        ]
      }
    },
    {
      "type": "Feature",
      "properties": {
        "norad_id": 41028,
        "name": "GSAT-15 (GAGAN/PRN 139)",
        "group": "gnss",
        "lat": 0.03748216425783205,
        "lon": 165.77814959695525,
        "alt_km": 35783.31487248416,
        "timestamp": "2025-12-09T23:33:24.095845+00:00",
        "meta_object_name": "GSAT-15 (GAGAN/PRN 139)",
        "meta_object_id": "2015-065A",
        "meta_epoch": "2025-12-09T08:52:57.139392",
        "meta_mean_motion": 1.00270497,
        "meta_eccentricity": 0.00028585,
        "meta_inclination": 0.0453,
        "meta_ra_of_asc_node": 97.7112,
        "meta_arg_of_pericenter": 142.651,
        "meta_mean_anomaly": 64.7387,
        "meta_ephemeris_type": 0,
        "meta_classification_type": "U",
        "meta_norad_cat_id": 41028,
        "meta_element_set_no": 999,
        "meta_rev_at_epoch": 3689,
        "meta_bstar": 0,
        "meta_mean_motion_dot": -2.55e-06,
        "meta_mean_motion_ddot": 0,
        "tle_line1": "1 41028U 15065A   25343.37010578 -.00000255  00000+0  00000+0 0  9991",
        "tle_line2": "2 41028   0.0453  97.7112 0002858 142.6510  64.7387  1.00270497 36899"
      },
      "geometry": {
        "type": "Point",
        "coordinates": [
          165.77814959695525,
          0.03748216425783205
        ]
      }
    },
    {
      "type": "Feature",
      "properties": {
        "norad_id": 41174,
        "name": "GSAT0209 (GALILEO 12)",
        "group": "gnss",
        "lat": -51.46191177621837,
        "lon": -14.70918850424505,
        "alt_km": 23229.370729273538,
        "timestamp": "2025-12-09T23:33:24.095858+00:00",
        "meta_object_name": "GSAT0209 (GALILEO 12)",
        "meta_object_id": "2015-079A",
        "meta_epoch": "2025-12-08T09:34:38.512704",
        "meta_mean_motion": 1.70474355,
        "meta_eccentricity": 0.00023972,
        "meta_inclination": 55.7104,
        "meta_ra_of_asc_node": 106.5001,
        "meta_arg_of_pericenter": 353.8677,
        "meta_mean_anomaly": 6.0907,
        "meta_ephemeris_type": 0,
        "meta_classification_type": "U",
        "meta_norad_cat_id": 41174,
        "meta_element_set_no": 999,
        "meta_rev_at_epoch": 6152,
        "meta_bstar": 0,
        "meta_mean_motion_dot": 1e-07,
        "meta_mean_motion_ddot": 0,
        "tle_line1": "1 41174U 15079A   25342.39905686  .00000010  00000+0  00000+0 0  9990",
        "tle_line2": "2 41174  55.7104 106.5001 0002397 353.8677   6.0907  1.70474355 61526"
      },
      "geometry": {
        "type": "Point",
        "coordinates": [
          -14.70918850424505,
          -51.46191177621837
        ]
      }
    },
    {
      "type": "Feature",
      "properties": {
        "norad_id": 41175,
        "name": "GSAT0208 (GALILEO 11)",
        "group": "gnss",
        "lat": 47.886273247513024,
        "lon": -122.49978361275873,
        "alt_km": 23218.63384851685,
        "timestamp": "2025-12-09T23:33:24.095870+00:00",
        "meta_object_name": "GSAT0208 (GALILEO 11)",
        "meta_object_id": "2015-079B",
        "meta_epoch": "2025-12-08T14:51:40.201056",
        "meta_mean_motion": 1.70474231,
        "meta_eccentricity": 0.0001859,
        "meta_inclination": 55.7088,
        "meta_ra_of_asc_node": 106.4912,
        "meta_arg_of_pericenter": 3.1611,
        "meta_mean_anomaly": 356.8026,
        "meta_ephemeris_type": 0,
        "meta_classification_type": "U",
        "meta_norad_cat_id": 41175,
        "meta_element_set_no": 999,
        "meta_rev_at_epoch": 6194,
        "meta_bstar": 0,
        "meta_mean_motion_dot": 1e-07,
        "meta_mean_motion_ddot": 0,
        "tle_line1": "1 41175U 15079B   25342.61921529  .00000010  00000+0  00000+0 0  9990",
        "tle_line2": "2 41175  55.7088 106.4912 0001859   3.1611 356.8026  1.70474231 61940"
      },
      "geometry": {
        "type": "Point",
        "coordinates": [
          -122.49978361275873,
          47.886273247513024
        ]
      }
    },
    {
      "type": "Feature",
      "properties": {
        "norad_id": 41241,
        "name": "IRNSS-1E",
        "group": "gnss",
        "lat": 27.575891011496527,
        "lon": -171.50262729649384,
        "alt_km": 35743.68081258265,
        "timestamp": "2025-12-09T23:33:24.095936+00:00",
        "meta_object_name": "IRNSS-1E",
        "meta_object_id": "2016-003A",
        "meta_epoch": "2025-12-08T15:50:39.371424",
        "meta_mean_motion": 1.00275569,
        "meta_eccentricity": 0.00218793,
        "meta_inclination": 32.8166,
        "meta_ra_of_asc_node": 62.5131,
        "meta_arg_of_pericenter": 186.973,
        "meta_mean_anomaly": 177.6191,
        "meta_ephemeris_type": 0,
        "meta_classification_type": "U",
        "meta_norad_cat_id": 41241,
        "meta_element_set_no": 999,
        "meta_rev_at_epoch": 3617,
        "meta_bstar": 0,
        "meta_mean_motion_dot": -3.11e-06,
        "meta_mean_motion_ddot": 0,
        "tle_line1": "1 41241U 16003A   25342.66017791 -.00000311  00000+0  00000+0 0  9999",
        "tle_line2": "2 41241  32.8166  62.5131 0021879 186.9730 177.6191  1.00275569 36173"
      },
      "geometry": {
        "type": "Point",
        "coordinates": [
          -171.50262729649384,
          27.575891011496527
        ]
      }
    },
    {
      "type": "Feature",
      "properties": {
        "norad_id": 41328,
        "name": "GPS BIIF-12 (PRN 32)",
        "group": "gnss",
        "lat": 43.903167171954,
        "lon": 138.52921354696252,
        "alt_km": 20419.895012690755,
        "timestamp": "2025-12-09T23:33:24.095952+00:00",
        "meta_object_name": "GPS BIIF-12 (PRN 32)",
        "meta_object_id": "2016-007A",
        "meta_epoch": "2025-12-09T09:39:21.792384",
        "meta_mean_motion": 2.00560837,
        "meta_eccentricity": 0.00919989,
        "meta_inclination": 55.4044,
        "meta_ra_of_asc_node": 96.9895,
        "meta_arg_of_pericenter": 243.4939,
        "meta_mean_anomaly": 115.5474,
        "meta_ephemeris_type": 0,
        "meta_classification_type": "U",
        "meta_norad_cat_id": 41328,
        "meta_element_set_no": 999,
        "meta_rev_at_epoch": 7203,
        "meta_bstar": 0,
        "meta_mean_motion_dot": 4e-08,
        "meta_mean_motion_ddot": 0,
        "tle_line1": "1 41328U 16007A   25343.40233556  .00000004  00000+0  00000+0 0  9999",
        "tle_line2": "2 41328  55.4044  96.9895 0091998 243.4939 115.5474  2.00560837 72038"
      },
      "geometry": {
        "type": "Point",
        "coordinates": [
          138.52921354696252,
          43.903167171954
        ]
      }
    }
  ]
}